[{"OBJECT_NAME":"STARLINK-30955","OBJECT_ID":"2023-180R","EPOCH":"2026-03-09T07:34:44.053824","MEAN_MOTION":15.27581809,"ECCENTRICITY":1.546e-5,"INCLINATION":43.0014,"RA_OF_ASC_NODE":54.2327,"ARG_OF_PERICENTER":229.976,"MEAN_ANOMALY":130.1078,"EPHEMERIS_TYPE":0,"CLASSIFICATION_TYPE":"U","NORAD_CAT_ID":58417,"ELEMENT_SET_NO":999,"REV_AT_EPOCH":12757,"BSTAR":3.3361208e-5,"MEAN_MOTION_DOT":6.57e-6,"MEAN_MOTION_DDOT":0},{"OBJECT_NAME":"USA 61","OBJECT_ID":"1990-050C","EPOCH":"2026-03-09T12:11:25.917504","MEAN_MOTION":13.6196417,"ECCENTRICITY":0.0883009,"INCLINATION":63.2938,"RA_OF_ASC_NODE":120.5629,"ARG_OF_PERICENTER":83.2372,"MEAN_ANOMALY":286.8223,"EPHEMERIS_TYPE":0,"CLASSIFICATION_TYPE":"U","NORAD_CAT_ID":20691,"ELEMENT_SET_NO":999,"REV_AT_EPOCH":9272,"BSTAR":0.00024937203,"MEAN_MOTION_DOT":3.372e-5,"MEAN_MOTION_DDOT":0}]
